CCSDS_OMM_VERS = 2.0
CREATION_DATE  = 
ORIGINATOR     = 

OBJECT_NAME    = STARLINK-36050
OBJECT_ID      = 2025-270Q
CENTER_NAME    = EARTH
REF_FRAME      = TEME
TIME_SYSTEM    = UTC
MEAN_ELEMENT_THEORY = SGP/SGP4

EPOCH          = 2025-12-13T20:00:03.000384
MEAN_MOTION    = 15.40662865
ECCENTRICITY   = .00015776
INCLINATION    = 42.9996
RA_OF_ASC_NODE = 186.3823
ARG_OF_PERICENTER = 255.1434
MEAN_ANOMALY   = 107.4780

EPHEMERIS_TYPE = 0
CLASSIFICATION_TYPE = U
NORAD_CAT_ID   = 66602
ELEMENT_SET_NO = 999
REV_AT_EPOCH   = 447
BSTAR          = .69530869E-3
MEAN_MOTION_DOT = .28815E-3
MEAN_MOTION_DDOT = 0

CCSDS_OMM_VERS = 2.0
CREATION_DATE  = 
ORIGINATOR     = 

OBJECT_NAME    = STARLINK-36048
OBJECT_ID      = 2025-270R
CENTER_NAME    = EARTH
REF_FRAME      = TEME
TIME_SYSTEM    = UTC
MEAN_ELEMENT_THEORY = SGP/SGP4

EPOCH          = 2025-12-13T20:00:03.000384
MEAN_MOTION    = 15.50546418
ECCENTRICITY   = .00016452
INCLINATION    = 42.9997
RA_OF_ASC_NODE = 186.2724
ARG_OF_PERICENTER = 250.6549
MEAN_ANOMALY   = 157.3977

EPHEMERIS_TYPE = 0
CLASSIFICATION_TYPE = U
NORAD_CAT_ID   = 66603
ELEMENT_SET_NO = 999
REV_AT_EPOCH   = 447
BSTAR          = .13154381E-3
MEAN_MOTION_DOT = .7374E-4
MEAN_MOTION_DDOT = 0

CCSDS_OMM_VERS = 2.0
CREATION_DATE  = 
ORIGINATOR     = 

OBJECT_NAME    = STARLINK-35977
OBJECT_ID      = 2025-270S
CENTER_NAME    = EARTH
REF_FRAME      = TEME
TIME_SYSTEM    = UTC
MEAN_ELEMENT_THEORY = SGP/SGP4

EPOCH          = 2025-12-13T20:00:03.000384
MEAN_MOTION    = 15.50468794
ECCENTRICITY   = .00015548
INCLINATION    = 42.9997
RA_OF_ASC_NODE = 186.2679
ARG_OF_PERICENTER = 262.0513
MEAN_ANOMALY   = 148.0151

EPHEMERIS_TYPE = 0
CLASSIFICATION_TYPE = U
NORAD_CAT_ID   = 66604
ELEMENT_SET_NO = 999
REV_AT_EPOCH   = 457
BSTAR          = .14187105E-2
MEAN_MOTION_DOT = .83451E-3
MEAN_MOTION_DDOT = 0

CCSDS_OMM_VERS = 2.0
CREATION_DATE  = 
ORIGINATOR     = 

OBJECT_NAME    = STARLINK-36052
OBJECT_ID      = 2025-270T
CENTER_NAME    = EARTH
REF_FRAME      = TEME
TIME_SYSTEM    = UTC
MEAN_ELEMENT_THEORY = SGP/SGP4

EPOCH          = 2025-12-13T20:00:03.000384
MEAN_MOTION    = 15.50525361
ECCENTRICITY   = .00016012
INCLINATION    = 42.9997
RA_OF_ASC_NODE = 186.2632
ARG_OF_PERICENTER = 268.1479
MEAN_ANOMALY   = 143.7380

EPHEMERIS_TYPE = 0
CLASSIFICATION_TYPE = U
NORAD_CAT_ID   = 66605
ELEMENT_SET_NO = 999
REV_AT_EPOCH   = 457
BSTAR          = .8885057E-3
MEAN_MOTION_DOT = .5203E-3
MEAN_MOTION_DDOT = 0

CCSDS_OMM_VERS = 2.0
CREATION_DATE  = 
ORIGINATOR     = 

OBJECT_NAME    = STARLINK-36063
OBJECT_ID      = 2025-270U
CENTER_NAME    = EARTH
REF_FRAME      = TEME
TIME_SYSTEM    = UTC
MEAN_ELEMENT_THEORY = SGP/SGP4

EPOCH          = 2025-12-13T20:00:03.000384
MEAN_MOTION    = 15.50518481
ECCENTRICITY   = .00016138
INCLINATION    = 42.9997
RA_OF_ASC_NODE = 186.2538
ARG_OF_PERICENTER = 266.9033
MEAN_ANOMALY   = 148.8156

EPHEMERIS_TYPE = 0
CLASSIFICATION_TYPE = U
NORAD_CAT_ID   = 66606
ELEMENT_SET_NO = 999
REV_AT_EPOCH   = 457
BSTAR          = .13927461E-2
MEAN_MOTION_DOT = .82048E-3
MEAN_MOTION_DDOT = 0

CCSDS_OMM_VERS = 2.0
CREATION_DATE  = 
ORIGINATOR     = 

OBJECT_NAME    = STARLINK-35993
OBJECT_ID      = 2025-270V
CENTER_NAME    = EARTH
REF_FRAME      = TEME
TIME_SYSTEM    = UTC
MEAN_ELEMENT_THEORY = SGP/SGP4

EPOCH          = 2025-12-13T20:00:03.000384
MEAN_MOTION    = 15.50527268
ECCENTRICITY   = .00014043
INCLINATION    = 42.9997
RA_OF_ASC_NODE = 186.2585
ARG_OF_PERICENTER = 264.7411
MEAN_ANOMALY   = 149.0643

EPHEMERIS_TYPE = 0
CLASSIFICATION_TYPE = U
NORAD_CAT_ID   = 66607
ELEMENT_SET_NO = 999
REV_AT_EPOCH   = 447
BSTAR          = .92248496E-3
MEAN_MOTION_DOT = .5405E-3
MEAN_MOTION_DDOT = 0

CCSDS_OMM_VERS = 2.0
CREATION_DATE  = 
ORIGINATOR     = 

OBJECT_NAME    = STARLINK-36036
OBJECT_ID      = 2025-270W
CENTER_NAME    = EARTH
REF_FRAME      = TEME
TIME_SYSTEM    = UTC
MEAN_ELEMENT_THEORY = SGP/SGP4

EPOCH          = 2025-12-13T20:00:03.000384
MEAN_MOTION    = 15.50522755
ECCENTRICITY   = .00014173
INCLINATION    = 42.9998
RA_OF_ASC_NODE = 186.2486
ARG_OF_PERICENTER = 270.0012
MEAN_ANOMALY   = 147.6342

EPHEMERIS_TYPE = 0
CLASSIFICATION_TYPE = U
NORAD_CAT_ID   = 66608
ELEMENT_SET_NO = 999
REV_AT_EPOCH   = 441
BSTAR          = .11395985E-2
MEAN_MOTION_DOT = .66952E-3
MEAN_MOTION_DDOT = 0

CCSDS_OMM_VERS = 2.0
CREATION_DATE  = 
ORIGINATOR     = 

OBJECT_NAME    = STARLINK-36034
OBJECT_ID      = 2025-270X
CENTER_NAME    = EARTH
REF_FRAME      = TEME
TIME_SYSTEM    = UTC
MEAN_ELEMENT_THEORY = SGP/SGP4

EPOCH          = 2025-12-13T20:00:03.000384
MEAN_MOTION    = 15.50520601
ECCENTRICITY   = .00015271
INCLINATION    = 42.9997
RA_OF_ASC_NODE = 186.2445
ARG_OF_PERICENTER = 265.0586
MEAN_ANOMALY   = 154.4919

EPHEMERIS_TYPE = 0
CLASSIFICATION_TYPE = U
NORAD_CAT_ID   = 66609
ELEMENT_SET_NO = 999
REV_AT_EPOCH   = 441
BSTAR          = .13278375E-2
MEAN_MOTION_DOT = .78175E-3
MEAN_MOTION_DDOT = 0

CCSDS_OMM_VERS = 2.0
CREATION_DATE  = 
ORIGINATOR     = 

OBJECT_NAME    = STARLINK-35680
OBJECT_ID      = 2025-270Y
CENTER_NAME    = EARTH
REF_FRAME      = TEME
TIME_SYSTEM    = UTC
MEAN_ELEMENT_THEORY = SGP/SGP4

EPOCH          = 2025-12-13T20:00:03.000384
MEAN_MOTION    = 15.50577114
ECCENTRICITY   = .00014588
INCLINATION    = 42.9997
RA_OF_ASC_NODE = 186.2389
ARG_OF_PERICENTER = 277.8723
MEAN_ANOMALY   = 143.6070

EPHEMERIS_TYPE = 0
CLASSIFICATION_TYPE = U
NORAD_CAT_ID   = 66610
ELEMENT_SET_NO = 999
REV_AT_EPOCH   = 468
BSTAR          = -.63962744E-3
MEAN_MOTION_DOT = -.37682E-3
MEAN_MOTION_DDOT = 0

CCSDS_OMM_VERS = 2.0
CREATION_DATE  = 
ORIGINATOR     = 

OBJECT_NAME    = STARLINK-35583
OBJECT_ID      = 2025-270Z
CENTER_NAME    = EARTH
REF_FRAME      = TEME
TIME_SYSTEM    = UTC
MEAN_ELEMENT_THEORY = SGP/SGP4

EPOCH          = 2025-12-13T20:00:03.000384
MEAN_MOTION    = 15.50520021
ECCENTRICITY   = .00016066
INCLINATION    = 42.9999
RA_OF_ASC_NODE = 186.2344
ARG_OF_PERICENTER = 275.3605
MEAN_ANOMALY   = 148.0330

EPHEMERIS_TYPE = 0
CLASSIFICATION_TYPE = U
NORAD_CAT_ID   = 66611
ELEMENT_SET_NO = 999
REV_AT_EPOCH   = 468
BSTAR          = .17331097E-2
MEAN_MOTION_DOT = .102457E-2
MEAN_MOTION_DDOT = 0

CCSDS_OMM_VERS = 2.0
CREATION_DATE  = 
ORIGINATOR     = 

OBJECT_NAME    = STARLINK-36039
OBJECT_ID      = 2025-270AA
CENTER_NAME    = EARTH
REF_FRAME      = TEME
TIME_SYSTEM    = UTC
MEAN_ELEMENT_THEORY = SGP/SGP4

EPOCH          = 2025-12-13T20:00:03.000384
MEAN_MOTION    = 15.40635828
ECCENTRICITY   = .00019203
INCLINATION    = 42.9996
RA_OF_ASC_NODE = 186.3204
ARG_OF_PERICENTER = 266.8394
MEAN_ANOMALY   = 120.6770

EPHEMERIS_TYPE = 0
CLASSIFICATION_TYPE = U
NORAD_CAT_ID   = 66612
ELEMENT_SET_NO = 999
REV_AT_EPOCH   = 457
BSTAR          = .11433599E-2
MEAN_MOTION_DOT = .47655E-3
MEAN_MOTION_DDOT = 0

CCSDS_OMM_VERS = 2.0
CREATION_DATE  = 
ORIGINATOR     = 

OBJECT_NAME    = STARLINK-36037
OBJECT_ID      = 2025-270AB
CENTER_NAME    = EARTH
REF_FRAME      = TEME
TIME_SYSTEM    = UTC
MEAN_ELEMENT_THEORY = SGP/SGP4

EPOCH          = 2025-12-13T20:00:03.000384
MEAN_MOTION    = 15.43657049
ECCENTRICITY   = .00019949
INCLINATION    = 42.9999
RA_OF_ASC_NODE = 186.2709
ARG_OF_PERICENTER = 259.2333
MEAN_ANOMALY   = 149.4144

EPHEMERIS_TYPE = 0
CLASSIFICATION_TYPE = U
NORAD_CAT_ID   = 66613
ELEMENT_SET_NO = 999
REV_AT_EPOCH   = 457
BSTAR          = -.42435608E-1
MEAN_MOTION_DOT = -.1769377E-1
MEAN_MOTION_DDOT = 0

