STARLINK-36050          
1 66602U 25270Q   25347.83336806  .00028815  00000+0  69531-3 0  9994
2 66602  42.9996 186.3823 0001577 255.1434 107.4780 15.40662865  4471
STARLINK-36048          
1 66603U 25270R   25347.83336806  .00007374  00000+0  13154-3 0  9992
2 66603  42.9997 186.2724 0001645 250.6549 157.3977 15.50546418  4473
STARLINK-35977          
1 66604U 25270S   25347.83336806  .00083451  00000+0  14187-2 0  9999
2 66604  42.9997 186.2679 0001554 262.0513 148.0151 15.50468794  4572
STARLINK-36052          
1 66605U 25270T   25347.83336806  .00052030  00000+0  88851-3 0  9999
2 66605  42.9997 186.2632 0001601 268.1479 143.7380 15.50525361  4573
STARLINK-36063          
1 66606U 25270U   25347.83336806  .00082048  00000+0  13927-2 0  9993
2 66606  42.9997 186.2538 0001613 266.9033 148.8156 15.50518481  4576
STARLINK-35993          
1 66607U 25270V   25347.83336806  .00054050  00000+0  92248-3 0  9990
2 66607  42.9997 186.2585 0001404 264.7411 149.0643 15.50527268  4479
STARLINK-36036          
1 66608U 25270W   25347.83336806  .00066952  00000+0  11396-2 0  9999
2 66608  42.9998 186.2486 0001417 270.0012 147.6342 15.50522755  4412
STARLINK-36034          
1 66609U 25270X   25347.83336806  .00078175  00000+0  13278-2 0  9991
2 66609  42.9997 186.2445 0001527 265.0586 154.4919 15.50520601  4413
STARLINK-35680          
1 66610U 25270Y   25347.83336806 -.00037682  00000+0 -63963-3 0  9990
2 66610  42.9997 186.2389 0001458 277.8723 143.6070 15.50577114  4687
STARLINK-35583          
1 66611U 25270Z   25347.83336806  .00102457  00000+0  17331-2 0  9999
2 66611  42.9999 186.2344 0001606 275.3605 148.0330 15.50520021  4681
STARLINK-36039          
1 66612U 25270AA  25347.83336806  .00047655  00000+0  11434-2 0  9996
2 66612  42.9996 186.3204 0001920 266.8394 120.6770 15.40635828  4577
STARLINK-36037          
1 66613U 25270AB  25347.83336806 -.01769377  00000+0 -42436-1 0  9997
2 66613  42.9999 186.2709 0001994 259.2333 149.4144 15.43657049  4576
